{
  "norad_id": 54792,
  "name": "STARLINK-5431",
  "history": [
    {
      "epoch": "2026-03-28T21:30:33.163488",
      "apogee_km": 540.506234692516,
      "perigee_km": 538.9841622512076,
      "latitude_deg": 6.326759356189994,
      "longitude_deg": 105.23684831988066,
      "semi_major_axis_km": 6917.882198471862,
      "eccentricity": 0.00011001,
      "inclination_deg": 53.2179,
      "raan_deg": 317.5401,
      "arg_perigee_deg": 84.5404,
      "mean_anomaly_deg": 275.5713,
      "mean_motion_rev_day": 15.08839408
    }
  ]
}